[{"OBJECT_NAME":"KUZGTU 1 (RS47S)","OBJECT_ID":"2023-091AV","EPOCH":"2026-03-09T22:22:51.965760","MEAN_MOTION":15.27481352,"ECCENTRICITY":0.0012896,"INCLINATION":97.5178,"RA_OF_ASC_NODE":132.5224,"ARG_OF_PERICENTER":89.3666,"MEAN_ANOMALY":270.9051,"EPHEMERIS_TYPE":0,"CLASSIFICATION_TYPE":"U","NORAD_CAT_ID":57217,"ELEMENT_SET_NO":999,"REV_AT_EPOCH":14921,"BSTAR":0.00057711473,"MEAN_MOTION_DOT":0.00015496,"MEAN_MOTION_DDOT":0},{"OBJECT_NAME":"STARLINK-32045","OBJECT_ID":"2024-117R","EPOCH":"2026-03-09T08:28:19.501536","MEAN_MOTION":15.30191201,"ECCENTRICITY":0.00013224,"INCLINATION":53.1616,"RA_OF_ASC_NODE":38.7739,"ARG_OF_PERICENTER":93.8989,"MEAN_ANOMALY":266.2163,"EPHEMERIS_TYPE":0,"CLASSIFICATION_TYPE":"U","NORAD_CAT_ID":60106,"ELEMENT_SET_NO":999,"REV_AT_EPOCH":9683,"BSTAR":5.1721442e-5,"MEAN_MOTION_DOT":1.173e-5,"MEAN_MOTION_DDOT":0}]
